GSAT0101 (PRN E11)      
1 37846U 11060A   20283.33613288 -.00000055  00000-0  00000-0 0  9996
2 37846  56.7001  38.1590 0000674   3.4303 356.5766  1.70475351 55714
GSAT0102 (PRN E12)      
1 37847U 11060B   20284.44992285 -.00000055  00000-0  00000-0 0  9997
2 37847  56.7013  38.1279 0002306 295.6581  74.0327  1.70475446 55742
GSAT0103 (PRN E19)      
1 38857U 12055A   20283.96477318  .00000032  00000-0  00000-0 0  9999
2 38857  54.9934 158.6303 0001708 267.0893  92.9840  1.70473835 49760
GSAT0104 (PRN E20)      
1 38858U 12055B   20285.07232875  .00000034  00000-0  00000+0 0  9992
2 38858  54.9944 158.5992 0000608 301.1480  58.9397  1.70473786 49736
GSAT0201 (PRN E18)      
1 40128U 14050A   20284.20861126 -.00000080  00000-0  00000-0 0  9996
2 40128  50.5498 356.7980 1658383 103.1428 275.8273  1.85519149 39806
GSAT0202 (PRN E14)      
1 40129U 14050B   20283.93291885 -.00000080  00000-0  00000+0 0  9994
2 40129  50.5851 355.8494 1656065 103.9482 274.9654  1.85519828 41937
GSAT0203 (PRN E26)      
1 40544U 15017A   20284.87700519 -.00000055  00000-0  00000-0 0  9995
2 40544  56.4943  38.2345 0003947 225.2592 134.7140  1.70475034 33822
GSAT0204 (PRN E22)      
1 40545U 15017B   20285.24459885 -.00000056  00000-0  00000-0 0  9996
2 40545  56.5013  38.2408 0003478 185.6193 174.3815  1.70475290 34494
GSAT0205 (PRN E24)      
1 40889U 15045A   20284.90016442  .00000030  00000-0  00000+0 0  9998
2 40889  56.0658 278.9208 0003833 335.7109  24.2834  1.70474914 31635
GSAT0206 (PRN E30)      
1 40890U 15045B   20285.11971493  .00000030  00000-0  00000+0 0  9990
2 40890  56.0648 278.9111 0003090 308.7638  51.2210  1.70474862 31664
GSAT0209 (PRN E09)      
1 41174U 15079A   20282.94695668  .00000032  00000-0  00000+0 0  9990
2 41174  55.0081 158.3571 0003592 332.7588  27.3168  1.70472956 29945
GSAT0208 (PRN E08)      
1 41175U 15079B   20284.92644999  .00000034  00000-0  00000+0 0  9994
2 41175  55.0067 158.3019 0002848 340.9769  19.1062  1.70472949 29980
GSAT0211 (PRN E02)      
1 41549U 16030A   20285.04762788  .00000030  00000-0  00000+0 0  9994
2 41549  56.2077 278.7815 0004876 294.4078  65.5535  1.70474669 27270
GSAT0210 (PRN E01)      
1 41550U 16030B   20281.23440784  .00000019  00000-0  00000-0 0  9990
2 41550  56.2099 278.8878 0004926 271.1849  88.7618  1.70474805 27226
GSAT0207 (PRN E07)      
1 41859U 16069A   20283.82635732  .00000032  00000-0  00000-0 0  9995
2 41859  54.6667 158.6669 0003076 317.0836  42.9852  1.70472930 24232
GSAT0212 (PRN E03)      
1 41860U 16069B   20283.67980783  .00000032  00000-0  00000-0 0  9999
2 41860  54.6648 158.6697 0002906 353.0759   7.0131  1.70472912 24253
GSAT0213 (PRN E04)      
1 41861U 16069C   20285.21873251  .00000033  00000-0  00000-0 0  9994
2 41861  54.6668 158.6310 0001909 285.7572  74.3156  1.70473047 24281
GSAT0214 (PRN E05)      
1 41862U 16069D   20283.60603239  .00000032  00000-0  00000-0 0  9992
2 41862  54.6650 158.6713 0001338 305.7270  54.3536  1.70472962 24245
GSAT0215 (PRN E21)      
1 43055U 17079A   20285.26890369  .00000030  00000-0  00000-0 0  9994
2 43055  56.1826 278.6172 0004285 268.0209  91.9419  1.70473827 17613
GSAT0216 (PRN E25)      
1 43056U 17079B   20284.97499614  .00000030  00000-0  00000+0 0  9999
2 43056  56.1831 278.6250 0006124 270.4320  89.5097  1.70473956 17597
GSAT0217 (PRN E27)      
1 43057U 17079C   20284.02189187  .00000030  00000-0  00000-0 0  9998
2 43057  56.1816 278.6516 0005604 278.3724  81.5749  1.70474003 17593
GSAT0218 (PRN E31)      
1 43058U 17079D   20283.65531022  .00000029  00000-0  00000-0 0  9994
2 43058  56.1824 278.6592 0006583 267.5583  92.3764  1.70473932 17617
GSAT0221 (PRN E15)      
1 43564U 18060A   20285.31452706 -.00000056  00000-0  00000-0 0  9994
2 43564  56.8815  37.8800 0003945 247.8006 112.1623  1.70476117 13791
GSAT0222 (PRN E33)      
1 43565U 18060B   20285.53437569 -.00000056  00000-0  00000-0 0  9999
2 43565  56.8839  37.8736 0003406 254.6599 105.3067  1.70476138 13846
GSAT0219 (PRN E36)      
1 43566U 18060C   20284.58156083 -.00000055  00000-0  00000+0 0  9991
2 43566  56.8845  37.9015 0003356 246.3944 113.5762  1.70476026 13806
GSAT0220 (PRN E13)      
1 43567U 18060D   20285.38801495 -.00000056  00000-0  00000+0 0  9996
2 43567  56.8837  37.8805 0003450 248.8018 111.1659  1.70475934 13792
